QIANFAN-25              
1 61558U 24185G   25356.75811271  .00000353  00000+0  20755-3 0  9990
2 61558  88.9800  77.0583 0007246 282.0605  77.9765 14.05916065 70917
QIANFAN-26              
1 61559U 24185H   25356.77055262  .00000299  00000+0  28652-3 0  9996
2 61559  88.9809  78.6707 0004879   1.2137 358.9041 13.77817765 70051
QIANFAN-27              
1 61560U 24185J   25356.77358830  .00000499  00000+0  19796-3 0  9996
2 61560  88.9800  75.7696 0005770 248.1131 111.9450 14.27344902 71591
QIANFAN-28              
1 61561U 24185K   25356.75081635  .00000821  00000+0  32505-3 0  9993
2 61561  88.9819  75.7762 0005279 246.2007 113.8634 14.28054265 71609
QIANFAN-29              
1 61562U 24185L   25356.81154470  .00000187  00000+0  27113-3 0  9993
2 61562  88.9786  80.2724 0010389  32.5561 327.6229 13.51015123 69158
QIANFAN-30              
1 61563U 24185M   25356.57166128  .00000125  00000+0  17789-3 0  9990
2 61563  88.9807  79.8263 0007585  22.7128 337.4357 13.49989872 69394
QIANFAN-31              
1 61564U 24185N   25356.77709635  .00000157  00000+0  20115-3 0  9991
2 61564  88.9790  79.5912 0006757  16.9980 343.1400 13.57970367 69521
QIANFAN-32              
1 61565U 24185P   25356.75691628  .00000155  00000+0  22296-3 0  9992
2 61565  88.9849  79.9443 0010236  44.7869 315.4106 13.50737535 69393
